[{"CCSDS_OMM_VERS":"2.0","COMMENT":"GENERATED VIA SPACE-TRACK.ORG API","CREATION_DATE":"2021-10-02T19:12:03","ORIGINATOR":"18 SPCS","OBJECT_NAME":"TBA - TO BE ASSIGNED","OBJECT_ID":"1987-062","CENTER_NAME":"EARTH","REF_FRAME":"TEME","TIME_SYSTEM":"UTC","MEAN_ELEMENT_THEORY":"SGP4","EPOCH":"2021-10-02T08:40:30.258912","MEAN_MOTION":"13.82442588","ECCENTRICITY":"0.00718960","INCLINATION":"82.8052","RA_OF_ASC_NODE":"124.8970","ARG_OF_PERICENTER":"16.2523","MEAN_ANOMALY":"159.6735","EPHEMERIS_TYPE":"0","CLASSIFICATION_TYPE":"U","NORAD_CAT_ID":"81865","ELEMENT_SET_NO":"999","REV_AT_EPOCH":"39647","BSTAR":"0.00046812000000","MEAN_MOTION_DOT":"0.00000532","MEAN_MOTION_DDOT":"0.0000000000000","SEMIMAJOR_AXIS":"7333.373","PERIOD":"104.163","APOAPSIS":"1007.962","PERIAPSIS":"902.514","OBJECT_TYPE":"TBA","RCS_SIZE":null,"COUNTRY_CODE":null,"LAUNCH_DATE":null,"SITE":null,"DECAY_DATE":null,"FILE":"3140729","GP_ID":"185993263","TLE_LINE0":"0 TBA - TO BE ASSIGNED","TLE_LINE1":"1 81865U 87062    21275.36146133 +.00000532 +00000+0 +46812-3 0  9998","TLE_LINE2":"2 81865  82.8052 124.8970 0071896  16.2523 159.6735 13.82442588396476"},{"CCSDS_OMM_VERS":"2.0","COMMENT":"GENERATED VIA SPACE-TRACK.ORG API","CREATION_DATE":"2021-10-02T19:12:03","ORIGINATOR":"18 SPCS","OBJECT_NAME":"TBA - TO BE ASSIGNED","OBJECT_ID":"","CENTER_NAME":"EARTH","REF_FRAME":"TEME","TIME_SYSTEM":"UTC","MEAN_ELEMENT_THEORY":"SGP4","EPOCH":"2021-10-01T22:10:04.904832","MEAN_MOTION":"13.25873799","ECCENTRICITY":"0.07998450","INCLINATION":"65.6765","RA_OF_ASC_NODE":"26.5723","ARG_OF_PERICENTER":"312.4399","MEAN_ANOMALY":"41.1592","EPHEMERIS_TYPE":"0","CLASSIFICATION_TYPE":"U","NORAD_CAT_ID":"81864","ELEMENT_SET_NO":"999","REV_AT_EPOCH":"34722","BSTAR":"0.00014189000000","MEAN_MOTION_DOT":"0.00000282","MEAN_MOTION_DDOT":"0.0000000000000","SEMIMAJOR_AXIS":"7540.504","PERIOD":"108.608","APOAPSIS":"1765.493","PERIAPSIS":"559.246","OBJECT_TYPE":"TBA","RCS_SIZE":null,"COUNTRY_CODE":null,"LAUNCH_DATE":null,"SITE":null,"DECAY_DATE":null,"FILE":"3140729","GP_ID":"185993366","TLE_LINE0":"0 TBA - TO BE ASSIGNED","TLE_LINE1":"1 81864U          21274.92366788 +.00000282 +00000+0 +14189-3 0  9999","TLE_LINE2":"2 81864  65.6765  26.5723 0799845 312.4399  41.1592 13.25873799347226"},{"CCSDS_OMM_VERS":"2.0","COMMENT":"GENERATED VIA SPACE-TRACK.ORG API","CREATION_DATE":"2021-09-30T20:16:03","ORIGINATOR":"18 SPCS","OBJECT_NAME":"TBA - TO BE ASSIGNED","OBJECT_ID":"","CENTER_NAME":"EARTH","REF_FRAME":"TEME","TIME_SYSTEM":"UTC","MEAN_ELEMENT_THEORY":"SGP4","EPOCH":"2021-09-30T09:37:01.426944","MEAN_MOTION":"14.75186390","ECCENTRICITY":"0.01032580","INCLINATION":"97.8148","RA_OF_ASC_NODE":"138.8040","ARG_OF_PERICENTER":"258.0473","MEAN_ANOMALY":"278.3903","EPHEMERIS_TYPE":"0","CLASSIFICATION_TYPE":"U","NORAD_CAT_ID":"81845","ELEMENT_SET_NO":"999","REV_AT_EPOCH":"42274","BSTAR":"0.00007002600000","MEAN_MOTION_DOT":"0.00000459","MEAN_MOTION_DDOT":"0.0000000000000","SEMIMAJOR_AXIS":"7022.697","PERIOD":"97.615","APOAPSIS":"717.077","PERIAPSIS":"572.047","OBJECT_TYPE":"TBA","RCS_SIZE":null,"COUNTRY_CODE":null,"LAUNCH_DATE":null,"SITE":null,"DECAY_DATE":null,"FILE":"3136900","GP_ID":"185837732","TLE_LINE0":"0 TBA - TO BE ASSIGNED","TLE_LINE1":"1 81845U          21273.40071096 +.00000459 +00000+0 +70026-4 0  9994","TLE_LINE2":"2 81845  97.8148 138.8040 0103258 258.0473 278.3903 14.75186390422742"},{"CCSDS_OMM_VERS":"2.0","COMMENT":"GENERATED VIA SPACE-TRACK.ORG API","CREATION_DATE":"2021-09-30T20:16:03","ORIGINATOR":"18 SPCS","OBJECT_NAME":"TBA - TO BE ASSIGNED","OBJECT_ID":"","CENTER_NAME":"EARTH","REF_FRAME":"TEME","TIME_SYSTEM":"UTC","MEAN_ELEMENT_THEORY":"SGP4","EPOCH":"2021-09-29T18:07:41.212704","MEAN_MOTION":"14.14626308","ECCENTRICITY":"0.00820650","INCLINATION":"82.9223","RA_OF_ASC_NODE":"75.6587","ARG_OF_PERICENTER":"98.0893","MEAN_ANOMALY":"262.9606","EPHEMERIS_TYPE":"0","CLASSIFICATION_TYPE":"U","NORAD_CAT_ID":"81844","ELEMENT_SET_NO":"999","REV_AT_EPOCH":"40480","BSTAR":"0.00059536000000","MEAN_MOTION_DOT":"0.00001199","MEAN_MOTION_DDOT":"0.0000000000000","SEMIMAJOR_AXIS":"7221.721","PERIOD":"101.794","APOAPSIS":"902.851","PERIAPSIS":"784.321","OBJECT_TYPE":"TBA","RCS_SIZE":null,"COUNTRY_CODE":null,"LAUNCH_DATE":null,"SITE":null,"DECAY_DATE":null,"FILE":"3136900","GP_ID":"185837890","TLE_LINE0":"0 TBA - TO BE ASSIGNED","TLE_LINE1":"1 81844U          21272.75533811 +.00001199 +00000+0 +59536-3 0  9992","TLE_LINE2":"2 81844  82.9223  75.6587 0082065  98.0893 262.9606 14.14626308404801"},{"CCSDS_OMM_VERS":"2.0","COMMENT":"GENERATED VIA SPACE-TRACK.ORG API","CREATION_DATE":"2021-10-02T19:12:03","ORIGINATOR":"18 SPCS","OBJECT_NAME":"TBA - TO BE ASSIGNED","OBJECT_ID":"","CENTER_NAME":"EARTH","REF_FRAME":"TEME","TIME_SYSTEM":"UTC","MEAN_ELEMENT_THEORY":"SGP4","EPOCH":"2021-10-02T07:21:39.337056","MEAN_MOTION":"14.37421858","ECCENTRICITY":"0.00304570","INCLINATION":"67.7676","RA_OF_ASC_NODE":"232.0204","ARG_OF_PERICENTER":"29.5083","MEAN_ANOMALY":"119.2044","EPHEMERIS_TYPE":"0","CLASSIFICATION_TYPE":"U","NORAD_CAT_ID":"81838","ELEMENT_SET_NO":"999","REV_AT_EPOCH":"41201","BSTAR":"0.00036797000000","MEAN_MOTION_DOT":"0.00001030","MEAN_MOTION_DDOT":"0.0000000000000","SEMIMAJOR_AXIS":"7145.166","PERIOD":"100.179","APOAPSIS":"788.793","PERIAPSIS":"745.269","OBJECT_TYPE":"TBA","RCS_SIZE":null,"COUNTRY_CODE":null,"LAUNCH_DATE":null,"SITE":null,"DECAY_DATE":null,"FILE":"3140729","GP_ID":"185993606","TLE_LINE0":"0 TBA - TO BE ASSIGNED","TLE_LINE1":"1 81838U          21275.30670529 +.00001030 +00000+0 +36797-3 0  9995","TLE_LINE2":"2 81838  67.7676 232.0204 0030457  29.5083 119.2044 14.37421858412010"},{"CCSDS_OMM_VERS":"2.0","COMMENT":"GENERATED VIA SPACE-TRACK.ORG API","CREATION_DATE":"2021-10-02T19:12:03","ORIGINATOR":"18 SPCS","OBJECT_NAME":"TBA - TO BE ASSIGNED","OBJECT_ID":"","CENTER_NAME":"EARTH","REF_FRAME":"TEME","TIME_SYSTEM":"UTC","MEAN_ELEMENT_THEORY":"SGP4","EPOCH":"2021-10-02T03:29:15.144288","MEAN_MOTION":"12.93002223","ECCENTRICITY":"0.00287390","INCLINATION":"90.2785","RA_OF_ASC_NODE":"327.5872","ARG_OF_PERICENTER":"75.6914","MEAN_ANOMALY":"284.7392","EPHEMERIS_TYPE":"0","CLASSIFICATION_TYPE":"U","NORAD_CAT_ID":"81833","ELEMENT_SET_NO":"999","REV_AT_EPOCH":"25441","BSTAR":"0.00051521000000","MEAN_MOTION_DOT":"0.00000148","MEAN_MOTION_DDOT":"0.0000000000000","SEMIMAJOR_AXIS":"7667.769","PERIOD":"111.369","APOAPSIS":"1311.670","PERIAPSIS":"1267.597","OBJECT_TYPE":"TBA","RCS_SIZE":null,"COUNTRY_CODE":null,"LAUNCH_DATE":null,"SITE":null,"DECAY_DATE":null,"FILE":"3140729","GP_ID":"185993325","TLE_LINE0":"0 TBA - TO BE ASSIGNED","TLE_LINE1":"1 81833U          21275.14531417 +.00000148 +00000+0 +51521-3 0  9995","TLE_LINE2":"2 81833  90.2785 327.5872 0028739  75.6914 284.7392 12.93002223254416"},{"CCSDS_OMM_VERS":"2.0","COMMENT":"GENERATED VIA SPACE-TRACK.ORG API","CREATION_DATE":"2021-10-02T19:12:03","ORIGINATOR":"18 SPCS","OBJECT_NAME":"TBA - TO BE ASSIGNED","OBJECT_ID":"","CENTER_NAME":"EARTH","REF_FRAME":"TEME","TIME_SYSTEM":"UTC","MEAN_ELEMENT_THEORY":"SGP4","EPOCH":"2021-10-02T01:56:09.713472","MEAN_MOTION":"14.17755806","ECCENTRICITY":"0.00410980","INCLINATION":"65.8490","RA_OF_ASC_NODE":"126.5901","ARG_OF_PERICENTER":"88.3293","MEAN_ANOMALY":"272.2499","EPHEMERIS_TYPE":"0","CLASSIFICATION_TYPE":"U","NORAD_CAT_ID":"81824","ELEMENT_SET_NO":"999","REV_AT_EPOCH":"40630","BSTAR":"0.00069083000000","MEAN_MOTION_DOT":"0.00001332","MEAN_MOTION_DDOT":"0.0000000000000","SEMIMAJOR_AXIS":"7211.089","PERIOD":"101.569","APOAPSIS":"862.591","PERIAPSIS":"803.318","OBJECT_TYPE":"TBA","RCS_SIZE":null,"COUNTRY_CODE":null,"LAUNCH_DATE":null,"SITE":null,"DECAY_DATE":null,"FILE":"3140729","GP_ID":"185993675","TLE_LINE0":"0 TBA - TO BE ASSIGNED","TLE_LINE1":"1 81824U          21275.08066798 +.00001332 +00000+0 +69083-3 0  9991","TLE_LINE2":"2 81824  65.8490 126.5901 0041098  88.3293 272.2499 14.17755806406308"},{"CCSDS_OMM_VERS":"2.0","COMMENT":"GENERATED VIA SPACE-TRACK.ORG API","CREATION_DATE":"2021-10-01T17:51:17","ORIGINATOR":"18 SPCS","OBJECT_NAME":"TBA - TO BE ASSIGNED","OBJECT_ID":"","CENTER_NAME":"EARTH","REF_FRAME":"TEME","TIME_SYSTEM":"UTC","MEAN_ELEMENT_THEORY":"SGP4","EPOCH":"2021-10-01T04:59:20.567616","MEAN_MOTION":"11.19358449","ECCENTRICITY":"0.21664860","INCLINATION":"34.0514","RA_OF_ASC_NODE":"218.3052","ARG_OF_PERICENTER":"126.7119","MEAN_ANOMALY":"255.2657","EPHEMERIS_TYPE":"0","CLASSIFICATION_TYPE":"U","NORAD_CAT_ID":"81821","ELEMENT_SET_NO":"999","REV_AT_EPOCH":"39229","BSTAR":"0.00066891000000","MEAN_MOTION_DOT":"0.00050235","MEAN_MOTION_DDOT":"0.0000010028000","SEMIMAJOR_AXIS":"8441.554","PERIOD":"128.645","APOAPSIS":"3892.269","PERIAPSIS":"234.568","OBJECT_TYPE":"TBA","RCS_SIZE":null,"COUNTRY_CODE":null,"LAUNCH_DATE":null,"SITE":null,"DECAY_DATE":null,"FILE":"3138859","GP_ID":"185904614","TLE_LINE0":"0 TBA - TO BE ASSIGNED","TLE_LINE1":"1 81821U          21274.20787694 +.00050235 +10028-5 +66891-3 0  9993","TLE_LINE2":"2 81821  34.0514 218.3052 2166486 126.7119 255.2657 11.19358449392292"}]